OBJECT_NAME,OBJECT_ID,EPOCH,MEAN_MOTION,ECCENTRICITY,INCLINATION,RA_OF_ASC_NODE,ARG_OF_PERICENTER,MEAN_ANOMALY,EPHEMERIS_TYPE,CLASSIFICATION_TYPE,NORAD_CAT_ID,ELEMENT_SET_NO,REV_AT_EPOCH,BSTAR,MEAN_MOTION_DOT,MEAN_MOTION_DDOT
KUIPER-00428,2026-140B,2026-07-11T13:54:56.257920,15.36900769,.00079398,51.8815,280.9549,17.6830,342.4432,0,U,69593,999,498,.35857091E-3,.1278E-3,0
KUIPER-00481,2026-140C,2026-07-11T13:19:06.708864,15.37955078,.00113557,51.8794,280.7878,264.2787,95.6906,0,U,69594,999,498,.44157477E-3,.16414E-3,0
KUIPER-00490,2026-140D,2026-07-11T05:45:07.608960,15.37919900,.00068649,51.8769,282.4202,327.5188,32.5376,0,U,69595,999,493,.56190404E-3,.20958E-3,0
KUIPER-00493,2026-140E,2026-07-11T14:01:36.801408,15.36617305,.00077283,51.8814,280.9850,25.8406,334.2965,0,U,69596,999,498,.26585432E-3,.9281E-4,0
KUIPER-00496,2026-140F,2026-07-11T11:20:54.699648,15.34382192,.00099402,51.8792,281.7272,35.8564,324.3087,0,U,69597,999,496,.37385463E-3,.12293E-3,0
KUIPER-00513,2026-140G,2026-07-11T11:55:23.752416,15.38104537,.00081548,51.8827,281.1562,328.7915,31.2587,0,U,69598,999,497,.47757642E-3,.17859E-3,0
KUIPER-00516,2026-140H,2026-07-11T13:38:59.535168,15.37566768,.00067568,51.8805,280.8808,340.1512,19.9211,0,U,69599,999,498,.5039356E-3,.18532E-3,0
KUIPER-00517,2026-140J,2026-07-11T13:09:20.111616,15.38762147,.00105088,51.8777,280.7427,277.9717,82.0077,0,U,69600,999,498,.21269613E-3,.79E-4,0
KUIPER-00520,2026-140K,2026-07-11T13:40:25.674240,15.37628570,.00066148,51.8837,280.8967,342.1971,17.8783,0,U,69601,999,498,.59961639E-3,.2218E-3,0
KUIPER-00522,2026-140L,2026-07-11T11:30:34.282080,15.38597501,.00133849,51.8800,281.0380,249.8642,110.0905,0,U,69602,999,497,.45973748E-3,.1749E-3,0
KUIPER-00528,2026-140M,2026-07-11T12:10:11.056224,15.37455088,.00051162,51.8778,281.2089,343.9191,16.1633,0,U,69603,999,497,.38458256E-3,.13985E-3,0
KUIPER-00532,2026-140N,2026-07-11T13:56:58.249536,15.36578796,.00062682,51.8806,280.9595,19.3337,340.7886,0,U,69604,999,498,.28023296E-3,.9791E-4,0
KUIPER-00533,2026-140P,2026-07-11T13:23:38.599296,15.37994592,.00075548,51.8797,280.8100,324.5636,35.4848,0,U,69605,999,498,-.35573987E-2,-.133268E-2,0
KUIPER-00534,2026-140Q,2026-07-11T11:23:27.364992,15.38662919,.00133888,51.8818,281.0115,252.9579,106.9941,0,U,69606,999,497,.29780692E-3,.11202E-3,0
KUIPER-00537,2026-140R,2026-07-11T14:23:35.367360,15.34296234,.00110069,51.8811,281.0851,42.8840,317.3002,0,U,69607,999,498,.36402965E-3,.11929E-3,0
KUIPER-00538,2026-140S,2026-07-11T13:37:08.674464,15.37679500,.00067293,51.8820,280.8775,330.6202,29.4406,0,U,69608,999,498,.2743955E-3,.9936E-4,0
KUIPER-00540,2026-140T,2026-07-11T13:51:43.070112,15.36919037,.00066263,51.8830,280.9443,10.8065,349.3063,0,U,69609,999,498,.3637808E-3,.12977E-3,0
KUIPER-00541,2026-140U,2026-07-10T21:48:08.076384,15.38356975,.00083336,51.8827,283.9683,308.1236,51.8999,0,U,69610,999,488,.3697798E-3,.13847E-3,0
KUIPER-00542,2026-140V,2026-07-11T13:21:26.293248,15.38234454,.00079119,51.8812,280.8032,300.8666,59.1543,0,U,69611,999,498,.38070745E-3,.1421E-3,0
KUIPER-00543,2026-140W,2026-07-11T18:38:47.022432,15.36828687,.00081518,51.8774,280.0144,22.6917,337.4428,0,U,69612,999,501,.71787883E-3,.25967E-3,0
KUIPER-00544,2026-140X,2026-07-11T11:53:56.821056,15.38126834,.00065168,51.8799,281.1405,305.8745,54.1636,0,U,69613,999,497,.47072379E-3,.17604E-3,0
KUIPER-00546,2026-140Y,2026-07-11T12:58:01.365312,15.38810193,.00142602,51.8783,280.6956,250.2493,109.6957,0,U,69614,999,498,.24595513E-3,.9228E-4,0
KUIPER-00547,2026-140Z,2026-07-11T13:18:14.039424,15.37855649,.00108661,51.8825,280.7952,277.5828,82.3925,0,U,69615,999,498,.27228269E-3,.9924E-4,0
KUIPER-00549,2026-140AA,2026-07-11T12:12:03.945600,15.37288332,.00079376,51.8810,281.2228,2.2674,357.8347,0,U,69616,999,497,.28360768E-3,.10152E-3,0
KUIPER-00550,2026-140AB,2026-07-11T06:49:24.091104,15.32851397,.00080942,51.8779,282.7098,47.3338,312.8327,0,U,69617,999,493,.43294262E-3,.13605E-3,0
KUIPER-00551,2026-140AC,2026-07-11T13:07:49.234368,15.38371575,.00125175,51.8777,280.7418,254.9847,104.9755,0,U,69618,999,498,.39372991E-3,.14799E-3,0
KUIPER-00554,2026-140AD,2026-07-11T11:42:12.202272,15.37920416,.00113368,51.8774,281.0869,276.6495,83.3201,0,U,69619,999,497,.3910933E-3,.14472E-3,0
KUIPER-00555,2026-140AE,2026-07-11T13:10:53.503104,15.41047562,.00300465,51.8814,280.7627,285.5243,74.2428,0,U,69620,999,498,.52259306E-1,.2508038E-1,0
KUIPER-00556,2026-140AF,2026-07-10T21:35:54.326976,15.38267241,.00120472,51.8809,283.9056,253.3320,106.6344,0,U,69621,999,488,.43067767E-3,.16169E-3,0
KUIPER-00557,2026-140AG,2026-07-11T11:49:10.144992,15.37527254,.00099138,51.8807,281.1278,288.6863,71.3047,0,U,69622,999,497,.34423744E-3,.12516E-3,0
